{
    "links": {
        "self": "http://www.neowsapp.com/rest/v1/neo/3398089?api_key=iIulBulltgU6a56xZRHN4H3l9WmuAYTsLGpBGhQ2"
    },
    "id": "3398089",
    "neo_reference_id": "3398089",
    "name": "(2007 YG)",
    "designation": "2007 YG",
    "nasa_jpl_url": "http://ssd.jpl.nasa.gov/sbdb.cgi?sstr=3398089",
    "absolute_magnitude_h": 23.1,
    "estimated_diameter": {
        "kilometers": {
            "estimated_diameter_min": 0.063760979,
            "estimated_diameter_max": 0.1425738833
        },
        "meters": {
            "estimated_diameter_min": 63.7609789875,
            "estimated_diameter_max": 142.5738833281
        },
        "miles": {
            "estimated_diameter_min": 0.0396192233,
            "estimated_diameter_max": 0.0885912765
        },
        "feet": {
            "estimated_diameter_min": 209.1895703015,
            "estimated_diameter_max": 467.7620993781
        }
    },
    "is_potentially_hazardous_asteroid": false,
    "close_approach_data": [
        {
            "close_approach_date": "1914-05-13",
            "close_approach_date_full": "1914-May-13 11:38",
            "epoch_date_close_approach": -1755778920000,
            "relative_velocity": {
                "kilometers_per_second": "25.3601106912",
                "kilometers_per_hour": "91296.3984881533",
                "miles_per_hour": "56728.0316050417"
            },
            "miss_distance": {
                "astronomical": "0.4270395809",
                "lunar": "166.1183969701",
                "kilometers": "63884211.708332683",
                "miles": "39695808.4364617054"
            },
            "orbiting_body": "Earth"
        },
        {
            "close_approach_date": "2007-11-22",
            "close_approach_date_full": "2007-Nov-22 01:15",
            "epoch_date_close_approach": 1195694100000,
            "relative_velocity": {
                "kilometers_per_second": "11.3229842381",
                "kilometers_per_hour": "40762.743257335",
                "miles_per_hour": "25328.3834423146"
            },
            "miss_distance": {
                "astronomical": "0.1168538236",
                "lunar": "45.4561373804",
                "kilometers": "17481083.111915732",
                "miles": "10862241.3569198216"
            },
            "orbiting_body": "Earth"
        },
        {
            "close_approach_date": "2010-06-10",
            "close_approach_date_full": "2010-Jun-10 05:26",
            "epoch_date_close_approach": 1276147560000,
            "relative_velocity": {
                "kilometers_per_second": "12.2665803435",
                "kilometers_per_hour": "44159.6892367278",
                "miles_per_hour": "27439.1135704546"
            },
            "miss_distance": {
                "astronomical": "0.0638891088",
                "lunar": "24.8528633232",
                "kilometers": "9557674.592678256",
                "miles": "5938863.6031256928"
            },
            "orbiting_body": "Earth"
        },
        {
            "close_approach_date": "2122-06-01",
            "close_approach_date_full": "2122-Jun-01 12:57",
            "epoch_date_close_approach": 4809761820000,
            "relative_velocity": {
                "kilometers_per_second": "16.2965157052",
                "kilometers_per_hour": "58667.4565385944",
                "miles_per_hour": "36453.6759808838"
            },
            "miss_distance": {
                "astronomical": "0.1104523188",
                "lunar": "42.9659520132",
                "kilometers": "16523431.629040956",
                "miles": "10267184.3186229528"
            },
            "orbiting_body": "Earth"
        },
        {
            "close_approach_date": "2129-11-29",
            "close_approach_date_full": "2129-Nov-29 13:16",
            "epoch_date_close_approach": 5046326160000,
            "relative_velocity": {
                "kilometers_per_second": "15.5784529765",
                "kilometers_per_hour": "56082.430715441",
                "miles_per_hour": "34847.4414631584"
            },
            "miss_distance": {
                "astronomical": "0.1140778889",
                "lunar": "44.3762987821",
                "kilometers": "17065809.193536643",
                "miles": "10604202.1094779534"
            },
            "orbiting_body": "Earth"
        }
    ],
    "orbital_data": {
        "orbit_id": "11",
        "orbit_determination_date": "2017-04-06 09:04:54",
        "first_observation_date": "2007-12-16",
        "last_observation_date": "2007-12-31",
        "data_arc_in_days": 15,
        "observations_used": 19,
        "orbit_uncertainty": "8",
        "minimum_orbit_intersection": ".040644",
        "jupiter_tisserand_invariant": "4.978",
        "epoch_osculation": "2454455.5",
        "eccentricity": ".4114158224931179",
        "semi_major_axis": "1.270554211593477",
        "inclination": "11.51930232332047",
        "ascending_node_longitude": "265.7437492323634",
        "orbital_period": "523.1042241585183",
        "perihelion_distance": ".7478281056086515",
        "perihelion_argument": "71.09183029085611",
        "aphelion_distance": "1.793280317578302",
        "perihelion_time": "2454366.150372748400",
        "mean_anomaly": "61.49035760955478",
        "mean_motion": ".6881993747596039",
        "equinox": "J2000",
        "orbit_class": {
            "orbit_class_type": "APO",
            "orbit_class_description": "Near-Earth asteroid orbits which cross the Earth’s orbit similar to that of 1862 Apollo",
            "orbit_class_range": "a (semi-major axis) > 1.0 AU; q (perihelion) < 1.017 AU"
        }
    },
    "is_sentry_object": false
}